EOSSAT-1                
1 55053U 23001AW  26068.73619225  .00007695  00000+0  24844-3 0  9992
2 55053  97.3357 130.2294 0011263 110.3168 249.9285 15.32339828176689
STARLINK-30934          
1 58395U 23178X   26068.13385654 -.00001159  00000+0 -27036-4 0  9997
2 58395  53.1615   3.9148 0001000 102.8812 257.2300 15.30187998129733
